NORAD_CAT_ID,OBJECT_NAME,OBJECT_TYPE,EPOCH,MEAN_MOTION,ECCENTRICITY,INCLINATION,RA_OF_ASC_NODE,ARG_OF_PERICENTER,MEAN_ANOMALY,BSTAR,MEAN_MOTION_DOT,MEAN_MOTION_DDOT,TLE_LINE0,TLE_LINE1,TLE_LINE2,SEMIMAJOR_AXIS,PERIOD,APOGEE,PERIGEE,DECAYED
53742.0,STARLINK-4637,PAYLOAD,2022-12-27 14:34:33,15.0884888,0.0001452,53.2181,107.7662,54.9599,305.1529,0.00018724,2.694e-05,0.0,0 STARLINK-4637,1 53742U 22107AU  22361.60733388  .00002694  00000-0  18724-3 0  9991,2 53742  53.2181 107.7662 0001452  54.9599 305.1529 15.08848880 17479,6917.853,95.437,540.7230000000002,538.714,0.0
53742.0,STARLINK-4637,PAYLOAD,2022-12-27 16:09:56,15.08852423,0.0001524,53.2181,107.4683,56.1014,304.0123,0.00021869,3.195e-05,0.0,0 STARLINK-4637,1 53742U 22107AU  22361.67357174  .00003195  00000-0  21869-3 0  9994,2 53742  53.2181 107.4683 0001524  56.1014 304.0123 15.08852423 18269,6917.842,95.437,540.762,538.653,0.0
53742.0,STARLINK-4637,PAYLOAD,2022-12-29 06:19:12,15.08842579,0.0002477,53.2173,100.335,59.882,300.2417,-3.2437e-06,-3.4e-06,0.0,0 STARLINK-4637,1 53742U 22107AU  22363.26333959 -.00000340  00000-0 -32437-5 0  9992,2 53742  53.2173 100.3350 0002477  59.8820 300.2417 15.08842579 17721,6917.873000000001,95.437,541.451,538.024,0.0
53742.0,STARLINK-4637,PAYLOAD,2022-12-29 15:51:32,15.08822623,0.0001634,53.2172,98.5472,53.7922,306.3221,-0.00029771,-5.021e-05,0.0,0 STARLINK-4637,1 53742U 22107AU  22363.66078974 -.00005021  00000-0 -29771-3 0  9995,2 53742  53.2172  98.5472 0001634  53.7922 306.3221 15.08822623 17787,6917.934,95.439,540.929,538.668,0.0
53742.0,STARLINK-4637,PAYLOAD,2022-12-30 12:31:32,15.08853884,0.0001631999999999,53.2175,94.681,49.2119,310.9015,0.0004918,7.551e-05,0.0,0 STARLINK-4637,1 53742U 22107AU  22364.52190017  .00007551  00000-0  49180-3 0  9998,2 53742  53.2175  94.6810 0001632  49.2119 310.9015 15.08853884 17919,6917.8380000000025,95.437,540.832,538.5740000000002,0.0
53742.0,STARLINK-4637,PAYLOAD,2022-12-31 06:00:46,15.08855102,0.000157,53.2176,91.4094,52.8365,307.2771,0.00054369,8.379e-05,0.0,0 STARLINK-4637,1 53742U 22107AU  22365.25053582  .00008379  00000-0  54369-3 0  9998,2 53742  53.2176  91.4094 0001570  52.8365 307.2771 15.08855102 18029,6917.834,95.437,540.785,538.613,0.0
53742.0,STARLINK-4637,PAYLOAD,2022-12-31 12:22:18,15.08848326,0.000176,53.2164,90.2223,43.8022,316.3109,0.00041887,6.386e-05,0.0,0 STARLINK-4637,1 53742U 22107AU  22365.51549715  .00006386  00000-0  41887-3 0  9992,2 53742  53.2164  90.2223 0001760  43.8022 316.3109 15.08848326 18844,6917.855,95.437,540.937,538.502,0.0
53742.0,STARLINK-4637,PAYLOAD,2023-01-01 05:51:33,15.08846785,0.000171,53.2174,86.9502,43.7517,316.361,-0.00018434,-3.221e-05,0.0,0 STARLINK-4637,1 53742U 22107AU  23001.24413550 -.00003221  00000-0 -18434-3 0  9996,2 53742  53.2174  86.9502 0001710  43.7517 316.3610 15.08846785 18170,6917.86,95.437,540.908,538.5419999999998,0.0
53742.0,STARLINK-4637,PAYLOAD,2023-01-01 12:13:06,15.088249,0.0001718,53.2176,85.7606,47.1144,312.9992,-0.00046441,-7.669e-05,0.0,0 STARLINK-4637,1 53742U 22107AU  23001.50910546 -.00007669  00000-0 -46441-3 0  9991,2 53742  53.2176  85.7606 0001718  47.1144 312.9992 15.08824900 18996,6917.927,95.439,540.98,538.6030000000002,0.0
53742.0,STARLINK-4637,PAYLOAD,2023-01-01 13:48:30,15.08820247,0.0001696999999999,53.2174,85.464,41.9583,318.1539,-0.00051171,-8.418e-05,0.0,0 STARLINK-4637,1 53742U 22107AU  23001.57534810 -.00008418  00000-0 -51171-3 0  9993,2 53742  53.2174  85.4640 0001697  41.9583 318.1539 15.08820247 18225,6917.941,95.439,540.98,538.632,0.0
53742.0,STARLINK-4637,PAYLOAD,2023-01-01 15:23:54,15.08822464,0.0001672,53.2183,85.1668,44.1113,316.0013,-0.00031045,-5.223e-05,0.0,0 STARLINK-4637,1 53742U 22107AU  23001.64160167 -.00005223  00000-0 -31045-3 0  9990,2 53742  53.2183  85.1668 0001672  44.1113 316.0013 15.08822464 19014,6917.934,95.439,540.956,538.6419999999998,0.0
53742.0,STARLINK-4637,PAYLOAD,2023-01-02 05:42:22,15.08827681,0.0001652,53.2186,82.4912,41.0067,319.1049,-0.00017269,-3.034e-05,0.0,0 STARLINK-4637,1 53742U 22107AU  23002.23775968 -.00003034  00000-0 -17269-3 0  9997,2 53742  53.2186  82.4912 0001652  41.0067 319.1049 15.08827681 18323,6917.918000000002,95.438,540.9259999999998,538.64,0.0
53742.0,STARLINK-4637,PAYLOAD,2023-01-02 13:39:17,15.08831363,0.0001792,53.2179,81.0042,40.9525,319.1601,-5.113e-05,-1.102e-05,0.0,0 STARLINK-4637,1 53742U 22107AU  23002.56895300 -.00001102  00000-0 -51130-4 0  9996,2 53742  53.2179  81.0042 0001792  40.9525 319.1601 15.08831363 18377,6917.906999999997,95.438,541.011,538.5319999999998,0.0
53742.0,STARLINK-4637,PAYLOAD,2023-01-02 21:36:13,15.08837626,0.0001754999999999,53.218,79.5175,43.3661,316.7469,0.00018731,2.694e-05,0.0,0 STARLINK-4637,1 53742U 22107AU  23002.90015318  .00002694  00000-0  18731-3 0  9991,2 53742  53.2180  79.5175 0001755  43.3661 316.7469 15.08837626 19201,6917.888000000001,95.438,540.967,538.539,0.0
53742.0,STARLINK-4637,PAYLOAD,2023-01-03 11:54:42,15.08842586,0.000183,53.2182,76.8411,44.0506,316.0632,0.00055722,8.592e-05,0.0,0 STARLINK-4637,1 53742U 22107AU  23003.49632163  .00008592  00000-0  55722-3 0  9993,2 53742  53.2182  76.8411 0001830  44.0506 316.0632 15.08842586 19291,6917.871999999999,95.437,541.003,538.472,0.0
53742.0,STARLINK-4637,PAYLOAD,2023-01-04 05:23:56,15.08849554,0.0001827,53.2184,73.5704,44.7969,315.317,0.00029251,4.371e-05,0.0,0 STARLINK-4637,1 53742U 22107AU  23004.22495761  .00004371  00000-0  29251-3 0  9995,2 53742  53.2184  73.5704 0001827  44.7969 315.3170 15.08849554 18625,6917.851,95.437,540.98,538.452,0.0
53742.0,STARLINK-4637,PAYLOAD,2023-01-04 10:10:05,15.08858544,0.0001825,53.2185,72.6785,45.1428,314.9713,0.0005313,8.182e-05,0.0,0 STARLINK-4637,1 53742U 22107AU  23004.42367454  .00008182  00000-0  53130-3 0  9991,2 53742  53.2185  72.6785 0001825  45.1428 314.9713 15.08858544 19435,6917.824000000001,95.436,540.951,538.4259999999998,0.0
53742.0,STARLINK-4637,PAYLOAD,2023-01-04 11:45:28,15.0886299,0.0001831999999999,53.2185,72.3813,44.6468,315.4672,0.00064931,0.00010067,0.0,0 STARLINK-4637,1 53742U 22107AU  23004.48991302  .00010067  00000-0  64931-3 0  9998,2 53742  53.2185  72.3813 0001832  44.6468 315.4672 15.08862990 18664,6917.81,95.436,540.942,538.408,0.0
53742.0,STARLINK-4637,PAYLOAD,2023-01-05 05:14:42,15.08863094,0.000194,53.2186,69.1098,41.4393,318.6746,0.000345,5.21e-05,0.0,0 STARLINK-4637,1 53742U 22107AU  23005.21854430  .00005210  00000-0  34500-3 0  9993,2 53742  53.2186  69.1098 0001940  41.4393 318.6746 15.08863094 18771,6917.81,95.436,541.0169999999998,538.3330000000002,0.0
53742.0,STARLINK-4637,PAYLOAD,2023-01-05 13:11:37,15.08866832,0.0001955,53.2173,67.6228,37.3486,322.7642,0.00033664,5.077e-05,0.0,0 STARLINK-4637,1 53742U 22107AU  23005.54973851  .00005077  00000-0  33664-3 0  9999,2 53742  53.2173  67.6228 0001955  37.3486 322.7642 15.08866832 19605,6917.7980000000025,95.436,541.016,538.311,0.0
53742.0,STARLINK-4637,PAYLOAD,2023-01-06 05:05:28,15.08849912,0.0002451,53.2175,64.6492,50.2488,309.872,-9.8278e-05,-1.853e-05,0.0,0 STARLINK-4637,1 53742U 22107AU  23006.21213928 -.00001853  00000-0 -98278-4 0  9999,2 53742  53.2175  64.6492 0002451  50.2488 309.8720 15.08849912 18922,6917.85,95.437,541.411,538.02,0.0
53742.0,STARLINK-4637,PAYLOAD,2023-01-06 13:02:25,15.08824562,0.0001639,53.2191,63.1591,40.4189,319.6925,-0.00046316,-7.649e-05,0.0,0 STARLINK-4637,1 53742U 22107AU  23006.54334796 -.00007649  00000-0 -46316-3 0  9996,2 53742  53.2191  63.1591 0001639  40.4189 319.6925 15.08824562 18975,6917.928000000001,95.439,540.9259999999998,538.659,0.0
53742.0,STARLINK-4637,PAYLOAD,2023-01-07 03:20:54,15.08829009,0.0002213,53.2194,60.4877,19.2862,340.8214,2.1415e-05,5.2e-07,0.0,0 STARLINK-4637,1 53742U 22107AU  23007.13951476  .00000052  00000-0  21415-4 0  9995,2 53742  53.2194  60.4877 0002213  19.2862 340.8214 15.08829009 19841,6917.914000000002,95.438,541.31,538.248,0.0
53742.0,STARLINK-4637,PAYLOAD,2023-01-07 09:42:26,15.08841894,0.0002161,53.2175,59.2969,56.12,303.9997,0.00034621,5.226e-05,0.0,0 STARLINK-4637,1 53742U 22107AU  23007.40447175  .00005226  00000-0  34621-3 0  9991,2 53742  53.2175  59.2969 0002161  56.1200 303.9997 15.08841894 19109,6917.875,95.437,541.235,538.245,0.0
53742.0,STARLINK-4637,PAYLOAD,2023-01-07 20:50:08,15.08837346,0.0001683,53.2184,57.2165,4.6281,355.4726,0.00044329,6.773e-05,0.0,0 STARLINK-4637,1 53742U 22107AU  23007.86815717  .00006773  00000-0  44329-3 0  9996,2 53742  53.2184  57.2165 0001683   4.6281 355.4726 15.08837346 19952,6917.889,95.438,540.918,538.589,0.0
53742.0,STARLINK-4637,PAYLOAD,2023-01-08 03:11:42,15.08825666,0.0002021,53.2165,56.0263,42.7071,317.4078,0.00022959,3.366e-05,0.0,0 STARLINK-4637,1 53742U 22107AU  23008.13312747  .00003366  00000-0  22959-3 0  9992,2 53742  53.2165  56.0263 0002021  42.7071 317.4078 15.08825666 19213,6917.924,95.438,541.187,538.391,0.0
53742.0,STARLINK-4637,PAYLOAD,2023-01-08 12:44:01,15.0883383,0.0002047,53.2164,54.2423,40.1069,320.0074,0.00032928,4.955e-05,0.0,0 STARLINK-4637,1 53742U 22107AU  23008.53056859  .00004955  00000-0  32928-3 0  9997,2 53742  53.2164  54.2423 0002047  40.1069 320.0074 15.08833830 20059,6917.899,95.438,541.18,538.3480000000002,0.0
53742.0,STARLINK-4637,PAYLOAD,2023-01-09 03:02:28,15.08854811,0.0002083,53.217,51.5667,38.5222,321.5919,0.00065931,0.00010225,0.0,0 STARLINK-4637,1 53742U 22107AU  23009.12672269  .00010225  00000-0  65931-3 0  9999,2 53742  53.2170  51.5667 0002083  38.5222 321.5919 15.08854811 19366,6917.835,95.437,541.141,538.259,0.0
53742.0,STARLINK-4637,PAYLOAD,2023-01-09 10:59:24,15.08856777,0.0001987,53.2175,50.0794,36.6202,323.4926,0.0007322,0.00011389,0.0,0 STARLINK-4637,1 53742U 22107AU  23009.45792101  .00011389  00000-0  73220-3 0  9995,2 53742  53.2175  50.0794 0001987  36.6202 323.4926 15.08856777 20190,6917.8290000000015,95.436,541.069,538.32,0.0
